BEIDOU-2 IGSO-1 (C06)   
1 36828U 10036A   24365.25614958 -.00000055  00000+0  00000+0 0  9996
2 36828  54.2649 167.7886 0043436 205.9996 285.1359  1.00273971 52877
BEIDOU-2 G4 (C04)       
1 37210U 10057A   24365.84863567 -.00000090  00000+0  00000+0 0  9991
2 37210   2.3235  70.3070 0009206 190.3614 304.6375  1.00271270 51945
BEIDOU-2 IGSO-2 (C07)   
1 37256U 10068A   24365.69527719 -.00000179  00000+0  00000+0 0  9990
2 37256  48.5180 278.4222 0039592 215.9233 322.5965  1.00290349 51445
BEIDOU-2 IGSO-3 (C08)   
1 37384U 11013A   24365.58363437 -.00000156  00000+0  00000+0 0  9991
2 37384  61.6370  45.2222 0030547 184.1338 186.1648  1.00259756 50312
BEIDOU-2 IGSO-4 (C09)   
1 37763U 11038A   24363.92896541  .00000070  00000+0  00000+0 0  9996
2 37763  54.5704 170.4539 0131086 228.4500 129.3815  1.00267054 49278
BEIDOU-2 IGSO-5 (C10)   
1 37948U 11073A   24365.73243997 -.00000138  00000+0  00000+0 0  9998
2 37948  48.6535 278.1191 0101654 221.0899 319.1385  1.00288113 47781
BEIDOU-2 G5 (C05)       
1 38091U 12008A   24365.89998206  .00000079  00000+0  00000+0 0  9997
2 38091   2.2444  71.1172 0012719 231.7785 179.6453  1.00269469 47026
BEIDOU-2 M3 (C11)       
1 38250U 12018A   24363.30917489 -.00000078  00000+0  00000+0 0  9993
2 38250  56.2006 322.8685 0024804 270.2047  89.5023  1.86233686 85961
BEIDOU-2 M4 (C12)       
1 38251U 12018B   24364.31383341 -.00000072  00000+0  00000+0 0  9994
2 38251  56.1051 322.0920 0015721 274.3799  85.4319  1.86232112 85980
BEIDOU-2 M6 (C14)       
1 38775U 12050B   24364.56060344 -.00000035  00000+0  00000+0 0  9992
2 38775  56.0746  80.6420 0011635 336.1360  23.8436  1.86230947 83353
BEIDOU-2 G6 (C02)       
1 38953U 12059A   24365.90493427 -.00000155  00000+0  00000+0 0  9993
2 38953   3.0621  78.9114 0008256 289.7613 140.8779  1.00274231 44564
BEIDOU-3S IGSO-1S (C31) 
1 40549U 15019A   24364.77640711 -.00000175  00000+0  00000+0 0  9992
2 40549  50.2096 301.8743 0034186 198.2946 333.3630  1.00260774 35717
BEIDOU-3S M2S (C58)     
1 40748U 15037A   24365.58879540 -.00000066  00000+0  00000+0 0  9996
2 40748  55.3299 320.3468 0012130 266.4064  93.4488  1.86229079 64188
BEIDOU-3S M1S (C57)     
1 40749U 15037B   24366.39931248 -.00000062  00000+0  00000+0 0  9997
2 40749  55.3320 320.3058 0004606 331.7757  28.1949  1.86227522 64192
BEIDOU-3S IGSO-2S (C56) 
1 40938U 15053A   24365.69293140 -.00000092  00000+0  00000+0 0  9992
2 40938  50.0505 265.1063 0051340 188.3429 350.9574  1.00261100 34003
BEIDOU-2 IGSO-6 (C13)   
1 41434U 16021A   24364.84676734 -.00000145  00000+0  00000+0 0  9999
2 41434  59.4645  43.3802 0055487 227.3685 229.8740  1.00276986 32122
BEIDOU-2 G7 (C03)       
1 41586U 16037A   24365.86644867 -.00000332  00000+0  00000+0 0  9997
2 41586   1.8506  67.6932 0008018 342.9542 111.6208  1.00271385  1541
BEIDOU-3 M1 (C19)       
1 43001U 17069A   24365.40033716 -.00000028  00000+0  00000+0 0  9994
2 43001  56.2243  80.7364 0009859 296.2139  63.7229  1.86231219 48669
BEIDOU-3 M2 (C20)       
1 43002U 17069B   24365.87494361 -.00000024  00000+0  00000+0 0  9999
2 43002  56.2241  80.7561 0007108 320.2309  39.7580  1.86230857 48669
BEIDOU-3 M7 (C27)       
1 43107U 18003A   24365.08523217 -.00000069  00000+0  00000+0 0  9999
2 43107  54.7890 320.8688 0003038  53.7683 306.2531  1.86232377 47405
BEIDOU-3 M8 (C28)       
1 43108U 18003B   24365.56424392 -.00000067  00000+0  00000+0 0  9995
2 43108  54.7816 320.8367 0004745 275.8696  84.0704  1.86230824 47425
BEIDOU-3 M4 (C22)       
1 43207U 18018A   24364.93151563 -.00000032  00000+0  00000+0 0  9990
2 43207  56.1828  80.8343 0004124 351.1218   8.9061  1.86231143 46795
BEIDOU-3 M3 (C21)       
1 43208U 18018B   24364.99809430 -.00000031  00000+0  00000+0 0  9999
2 43208  56.1822  80.8364 0007245 306.6399  53.3292  1.86231317 46798
BEIDOU-3 M9 (C29)       
1 43245U 18029A   24365.21753262 -.00000067  00000+0  00000+0 0  9998
2 43245  54.6663 318.5533 0001947 291.0910  68.8826  1.86232603 45953
BEIDOU-3 M10 (C30)      
1 43246U 18029B   24366.22084760 -.00000062  00000+0  00000+0 0  9996
2 43246  54.6625 318.5455 0004451 353.8585   6.1326  1.86232726 45960
BEIDOU-2 IGSO-7 (C16)   
1 43539U 18057A   24365.87896588 -.00000062  00000+0  00000+0 0  9991
2 43539  55.1581 167.6718 0079128 231.9496 127.1134  1.00251640 23797
BEIDOU-3 M5 (C23)       
1 43581U 18062A   24365.91000248  .00000112  00000+0  00000+0 0  9994
2 43581  54.1131 200.4373 0001794 354.0415   6.0136  1.86228757 43706
BEIDOU-3 M6 (C24)       
1 43582U 18062B   24365.77479948  .00000113  00000+0  00000+0 0  9997
2 43582  54.1124 200.4314 0007484  44.2067 315.9112  1.86229739 43704
BEIDOU-3 M12 (C26)      
1 43602U 18067A   24366.24598768  .00000110  00000+0  00000+0 0  9997
2 43602  54.2042 199.1148 0008695  36.8836 323.2283  1.86227763 43191
BEIDOU-3 M11 (C25)      
1 43603U 18067B   24366.37956350  .00000109  00000+0  00000+0 0  9995
2 43603  54.2020 199.0749 0005261  33.5708 326.5136  1.86227243 43222
BEIDOU-3 M13 (C32)      
1 43622U 18072A   24366.34004604 -.00000021  00000+0  00000+0 0  9999
2 43622  56.1560  80.3124 0006682 291.2941  68.6788  1.86231014 42735
BEIDOU-3 M14 (C33)      
1 43623U 18072B   24365.66856301 -.00000026  00000+0  00000+0 0  9998
2 43623  56.1577  80.3282 0003837 316.7437  43.2665  1.86230883 42715
BEIDOU-3 M16 (C35)      
1 43647U 18078A   24365.29292060 -.00000067  00000+0  00000+0 0  9990
2 43647  54.5625 318.6326 0007462  10.7616 349.2487  1.86232282 42212
BEIDOU-3 M15 (C34)      
1 43648U 18078B   24365.42208504 -.00000066  00000+0  00000+0 0  9995
2 43648  54.5580 318.6301 0004254   9.9334 350.0698  1.86232077 42248
BEIDOU-3 G1 (C59)       
1 43683U 18085A   24365.84463917 -.00000257  00000+0  00000+0 0  9991
2 43683   2.6806 102.8061 0001105  42.6468  38.4072  1.00268148 22719
BEIDOU-3 M17 (C36)      
1 43706U 18093A   24366.11221653  .00000111  00000+0  00000+0 0  9994
2 43706  54.1959 200.3836 0006134 300.6881  59.3073  1.86228408 41592
BEIDOU-3 M18 (C37)      
1 43707U 18093B   24365.97594632  .00000111  00000+0  00000+0 0  9998
2 43707  54.1977 200.3802 0006078 344.2196  15.8181  1.86229927 41602
BEIDOU-3 IGSO-1 (C38)   
1 44204U 19023A   24365.58656936 -.00000196  00000+0  00000+0 0  9992
2 44204  57.9294  43.1735 0023962 223.1224 161.7675  1.00295653 21011
BEIDOU-2 G8 (C01)       
1 44231U 19027A   24366.41720319 -.00000229  00000+0  00000+0 0  9993
2 44231   1.9681  74.8472 0004721 210.9760 109.1328  1.00266427 20736
BEIDOU-3 IGSO-2 (C39)   
1 44337U 19035A   24366.34066144 -.00000082  00000+0  00000+0 0  9997
2 44337  55.1969 163.5389 0035635 196.8847 340.5971  1.00278132 20351
BEIDOU-3 M24 (C46)      
1 44542U 19061A   24366.04612397  .00000112  00000+0  00000+0 0  9991
2 44542  54.4233 200.7110 0009103  19.1899 340.9015  1.86229276 35860
BEIDOU-3 M23 (C45)      
1 44543U 19061B   24366.18231199  .00000111  00000+0  00000+0 0  9993
2 44543  54.4222 200.6751 0005706  18.8679 345.1559  1.86229519 35866
BEIDOU-3 IGSO-3 (C40)   
1 44709U 19073A   24365.19473644 -.00000184  00000+0  00000+0 0  9994
2 44709  55.7166 286.6452 0041268 184.5298 175.4665  1.00297345 19103
BEIDOU-3 M22 (C44)      
1 44793U 19078A   24365.35315122 -.00000067  00000+0  00000+0 0  9996
2 44793  54.4096 318.5385 0006205  14.4760 345.5365  1.86231971 34708
BEIDOU-3 M21 (C43)      
1 44794U 19078B   24364.40882042 -.00000072  00000+0  00000+0 0  9998
2 44794  54.3839 318.5432 0004498   3.1046 356.8915  1.86227698 34695
BEIDOU-3 M19 (C41)      
1 44864U 19090A   24366.39089517 -.00000020  00000+0  00000+0 0  9999
2 44864  56.0899  80.4716 0018340 279.8173 161.1379  1.86231451 34303
BEIDOU-3 M20 (C42)      
1 44865U 19090B   24365.66365263 -.00000026  00000+0  00000+0 0  9990
2 44865  56.0912  80.5295 0015598 291.8978 111.1693  1.86231467 34280
BEIDOU-3 G2 (C60)       
1 45344U 20017A   24366.47584755 -.00000121  00000+0  00000+0 0  9999
2 45344   2.5929  36.3055 0004049 234.0759  81.3260  1.00271165 17931
BEIDOU-3 G3 (C61)       
1 45807U 20040A   24365.86644884 -.00000331  00000+0  00000+0 0  9994
2 45807   1.1719  58.4138 0003849 306.4433 157.3930  1.00268298 16721
BEIDOU-3 G4 (C62)       
1 56564U 23066A   24365.85882880 -.00000086  00000+0  00000+0 0  9993
2 56564   1.6348 289.3330 0003297 262.3969  17.1760  1.00270075  6040
BEIDOU-3 M28 (C50)      
1 58654U 23207A   24365.56556979 -.00000028  00000+0  00000+0 0  9993
2 58654  55.2757  80.3779 0003117 263.4464  96.5567  1.86231985  6902
BEIDOU-3 M26 (C48)      
1 58655U 23207B   24365.90194715 -.00000025  00000+0  00000+0 0  9995
2 58655  55.2779  80.3521 0004363 251.0978 108.8955  1.86231444  6895
